[{"OBJECT_NAME":"STARLINK-36742","OBJECT_ID":"2026-036D","EPOCH":"2026-03-06T14:00:01.000224","MEAN_MOTION":15.81977327,"ECCENTRICITY":0.00018764,"INCLINATION":42.9997,"RA_OF_ASC_NODE":268.8142,"ARG_OF_PERICENTER":264.7767,"MEAN_ANOMALY":268.6137,"EPHEMERIS_TYPE":0,"CLASSIFICATION_TYPE":"U","NORAD_CAT_ID":67907,"ELEMENT_SET_NO":999,"REV_AT_EPOCH":314,"BSTAR":0.00042977405,"MEAN_MOTION_DOT":0.00090752,"MEAN_MOTION_DDOT":0},{"OBJECT_NAME":"STARLINK-36827","OBJECT_ID":"2026-036E","EPOCH":"2026-03-06T14:00:01.000224","MEAN_MOTION":15.81984628,"ECCENTRICITY":0.00018602,"INCLINATION":42.9994,"RA_OF_ASC_NODE":268.8033,"ARG_OF_PERICENTER":276.41,"MEAN_ANOMALY":261.2584,"EPHEMERIS_TYPE":0,"CLASSIFICATION_TYPE":"U","NORAD_CAT_ID":67908,"ELEMENT_SET_NO":999,"REV_AT_EPOCH":314,"BSTAR":0.00031609189,"MEAN_MOTION_DOT":0.0006644,"MEAN_MOTION_DDOT":0},{"OBJECT_NAME":"STARLINK-36822","OBJECT_ID":"2026-036F","EPOCH":"2026-03-06T14:00:01.000224","MEAN_MOTION":15.8197546,"ECCENTRICITY":0.00019455,"INCLINATION":42.9995,"RA_OF_ASC_NODE":268.793,"ARG_OF_PERICENTER":266.6593,"MEAN_ANOMALY":275.2841,"EPHEMERIS_TYPE":0,"CLASSIFICATION_TYPE":"U","NORAD_CAT_ID":67909,"ELEMENT_SET_NO":999,"REV_AT_EPOCH":314,"BSTAR":0.00040871432,"MEAN_MOTION_DOT":0.00086227,"MEAN_MOTION_DDOT":0},{"OBJECT_NAME":"STARLINK-36847","OBJECT_ID":"2026-036G","EPOCH":"2026-03-06T14:00:01.000224","MEAN_MOTION":15.81929826,"ECCENTRICITY":0.00017761,"INCLINATION":42.9992,"RA_OF_ASC_NODE":268.7824,"ARG_OF_PERICENTER":271.4539,"MEAN_ANOMALY":274.7923,"EPHEMERIS_TYPE":0,"CLASSIFICATION_TYPE":"U","NORAD_CAT_ID":67910,"ELEMENT_SET_NO":999,"REV_AT_EPOCH":314,"BSTAR":0.00065882901,"MEAN_MOTION_DOT":0.00139891,"MEAN_MOTION_DDOT":0},{"OBJECT_NAME":"STARLINK-36736","OBJECT_ID":"2026-036H","EPOCH":"2026-03-06T14:00:01.000224","MEAN_MOTION":15.81996959,"ECCENTRICITY":0.00017518,"INCLINATION":42.9993,"RA_OF_ASC_NODE":268.7713,"ARG_OF_PERICENTER":282.2449,"MEAN_ANOMALY":268.2404,"EPHEMERIS_TYPE":0,"CLASSIFICATION_TYPE":"U","NORAD_CAT_ID":67911,"ELEMENT_SET_NO":999,"REV_AT_EPOCH":314,"BSTAR":0.00016641535,"MEAN_MOTION_DOT":0.00034617,"MEAN_MOTION_DDOT":0},{"OBJECT_NAME":"STARLINK-36676","OBJECT_ID":"2026-036J","EPOCH":"2026-03-06T14:00:01.000224","MEAN_MOTION":15.82006312,"ECCENTRICITY":0.00021057,"INCLINATION":42.9994,"RA_OF_ASC_NODE":268.761,"ARG_OF_PERICENTER":275.247,"MEAN_ANOMALY":279.5052,"EPHEMERIS_TYPE":0,"CLASSIFICATION_TYPE":"U","NORAD_CAT_ID":67912,"ELEMENT_SET_NO":999,"REV_AT_EPOCH":314,"BSTAR":0.00012509783,"MEAN_MOTION_DOT":0.00025876,"MEAN_MOTION_DDOT":0},{"OBJECT_NAME":"STARLINK-36690","OBJECT_ID":"2026-036K","EPOCH":"2026-03-06T14:00:01.000224","MEAN_MOTION":15.81985115,"ECCENTRICITY":0.00018083,"INCLINATION":42.9992,"RA_OF_ASC_NODE":268.7502,"ARG_OF_PERICENTER":297.4399,"MEAN_ANOMALY":261.5844,"EPHEMERIS_TYPE":0,"CLASSIFICATION_TYPE":"U","NORAD_CAT_ID":67913,"ELEMENT_SET_NO":999,"REV_AT_EPOCH":314,"BSTAR":0.00030835896,"MEAN_MOTION_DOT":0.0006479,"MEAN_MOTION_DDOT":0},{"OBJECT_NAME":"STARLINK-36724","OBJECT_ID":"2026-036L","EPOCH":"2026-03-06T14:00:01.000224","MEAN_MOTION":15.81981535,"ECCENTRICITY":0.00019718,"INCLINATION":42.9995,"RA_OF_ASC_NODE":268.7275,"ARG_OF_PERICENTER":294.7056,"MEAN_ANOMALY":272.8724,"EPHEMERIS_TYPE":0,"CLASSIFICATION_TYPE":"U","NORAD_CAT_ID":67914,"ELEMENT_SET_NO":999,"REV_AT_EPOCH":314,"BSTAR":0.00029912399,"MEAN_MOTION_DOT":0.0006281,"MEAN_MOTION_DDOT":0},{"OBJECT_NAME":"STARLINK-36723","OBJECT_ID":"2026-036M","EPOCH":"2026-03-06T14:00:01.000224","MEAN_MOTION":15.81991514,"ECCENTRICITY":0.00016341,"INCLINATION":42.9993,"RA_OF_ASC_NODE":268.7393,"ARG_OF_PERICENTER":284.7477,"MEAN_ANOMALY":278.5527,"EPHEMERIS_TYPE":0,"CLASSIFICATION_TYPE":"U","NORAD_CAT_ID":67915,"ELEMENT_SET_NO":999,"REV_AT_EPOCH":314,"BSTAR":0.00020370175,"MEAN_MOTION_DOT":0.00042521,"MEAN_MOTION_DDOT":0},{"OBJECT_NAME":"STARLINK-36721","OBJECT_ID":"2026-036N","EPOCH":"2026-03-06T14:00:01.000224","MEAN_MOTION":15.81984972,"ECCENTRICITY":0.00018189,"INCLINATION":42.9991,"RA_OF_ASC_NODE":268.718,"ARG_OF_PERICENTER":283.2564,"MEAN_ANOMALY":288.5919,"EPHEMERIS_TYPE":0,"CLASSIFICATION_TYPE":"U","NORAD_CAT_ID":67916,"ELEMENT_SET_NO":999,"REV_AT_EPOCH":314,"BSTAR":0.00023635781,"MEAN_MOTION_DOT":0.00049448,"MEAN_MOTION_DDOT":0},{"OBJECT_NAME":"STARLINK-36722","OBJECT_ID":"2026-036P","EPOCH":"2026-03-06T14:00:01.000224","MEAN_MOTION":15.81953258,"ECCENTRICITY":0.0001767,"INCLINATION":42.9991,"RA_OF_ASC_NODE":268.7069,"ARG_OF_PERICENTER":277.8706,"MEAN_ANOMALY":298.2578,"EPHEMERIS_TYPE":0,"CLASSIFICATION_TYPE":"U","NORAD_CAT_ID":67917,"ELEMENT_SET_NO":999,"REV_AT_EPOCH":314,"BSTAR":0.00071916622,"MEAN_MOTION_DOT":0.00153155,"MEAN_MOTION_DDOT":0},{"OBJECT_NAME":"STARLINK-36341","OBJECT_ID":"2026-036Q","EPOCH":"2026-03-06T14:00:01.000224","MEAN_MOTION":15.81964942,"ECCENTRICITY":0.00019031,"INCLINATION":42.9974,"RA_OF_ASC_NODE":268.6842,"ARG_OF_PERICENTER":253.9995,"MEAN_ANOMALY":330.669,"EPHEMERIS_TYPE":0,"CLASSIFICATION_TYPE":"U","NORAD_CAT_ID":67918,"ELEMENT_SET_NO":999,"REV_AT_EPOCH":314,"BSTAR":0.00054294079,"MEAN_MOTION_DOT":0.00115048,"MEAN_MOTION_DDOT":0},{"OBJECT_NAME":"STARLINK-36663","OBJECT_ID":"2026-036R","EPOCH":"2026-03-06T14:00:01.000224","MEAN_MOTION":15.81977798,"ECCENTRICITY":0.00020937,"INCLINATION":42.9991,"RA_OF_ASC_NODE":268.6959,"ARG_OF_PERICENTER":281.2265,"MEAN_ANOMALY":299.1702,"EPHEMERIS_TYPE":0,"CLASSIFICATION_TYPE":"U","NORAD_CAT_ID":67919,"ELEMENT_SET_NO":999,"REV_AT_EPOCH":314,"BSTAR":0.00036998671,"MEAN_MOTION_DOT":0.0007794,"MEAN_MOTION_DDOT":0},{"OBJECT_NAME":"STARLINK-36375","OBJECT_ID":"2026-036S","EPOCH":"2026-03-06T14:00:01.000224","MEAN_MOTION":15.81970049,"ECCENTRICITY":0.0001862,"INCLINATION":42.9986,"RA_OF_ASC_NODE":268.674,"ARG_OF_PERICENTER":266.4378,"MEAN_ANOMALY":322.5118,"EPHEMERIS_TYPE":0,"CLASSIFICATION_TYPE":"U","NORAD_CAT_ID":67920,"ELEMENT_SET_NO":999,"REV_AT_EPOCH":314,"BSTAR":0.00047283487,"MEAN_MOTION_DOT":0.00099972,"MEAN_MOTION_DDOT":0},{"OBJECT_NAME":"STARLINK-36405","OBJECT_ID":"2026-036T","EPOCH":"2026-03-06T14:00:01.000224","MEAN_MOTION":15.81967214,"ECCENTRICITY":0.00019788,"INCLINATION":42.9984,"RA_OF_ASC_NODE":268.6635,"ARG_OF_PERICENTER":270.0379,"MEAN_ANOMALY":323.1879,"EPHEMERIS_TYPE":0,"CLASSIFICATION_TYPE":"U","NORAD_CAT_ID":67921,"ELEMENT_SET_NO":999,"REV_AT_EPOCH":314,"BSTAR":0.00039468098,"MEAN_MOTION_DOT":0.00083186,"MEAN_MOTION_DDOT":0},{"OBJECT_NAME":"STARLINK-36383","OBJECT_ID":"2026-036U","EPOCH":"2026-03-06T14:00:01.000224","MEAN_MOTION":15.81951833,"ECCENTRICITY":0.00017284,"INCLINATION":42.9971,"RA_OF_ASC_NODE":268.6527,"ARG_OF_PERICENTER":279.2881,"MEAN_ANOMALY":318.205,"EPHEMERIS_TYPE":0,"CLASSIFICATION_TYPE":"U","NORAD_CAT_ID":67922,"ELEMENT_SET_NO":999,"REV_AT_EPOCH":314,"BSTAR":0.00050564176,"MEAN_MOTION_DOT":0.00106939,"MEAN_MOTION_DDOT":0}]
